SAUDISAT 2              
1 28371U 04025F   26167.96026962  .00000198  00000+0  55390-4 0  9997
2 28371  98.5507 167.9363 0023598 298.9959  60.8873 14.56683833165719
COSMOS 2407             
1 28380U 04028A   26167.98308391  .00000060  00000+0  46056-4 0  9998
2 28380  82.9608  74.9853 0037832 252.5331 118.0653 13.76334690 99853
COSMOS 2414             
1 28521U 05002A   26168.10422676  .00000057  00000+0  35160-4 0  9996
2 28521  82.9499  43.7094 0039494 331.5264  28.3741 13.87926521 83809
INMARSAT 4-F1           
1 28628U 05009A   26167.79148134  .00000027  00000+0  00000+0 0  9996
2 28628   5.1673  42.7606 0002476  43.2986 282.0427  1.00270052 77664
SJ-7                    
1 28737U 05024A   26168.09063138  .00006698  00000+0  29954-3 0  9991
2 28737  97.7277 198.1917 0016351  38.3711 321.8683 15.21542497148018
CUBESAT XI-V            
1 28895U 05043F   26167.38340975  .00001200  00000+0  19649-3 0  9999
2 28895  98.2985 322.9884 0013585 203.3717 156.6874 14.72629782101632
HINODE (SOLAR-B)        
1 29479U 06041A   26168.04910784  .00000550  00000+0  10291-3 0  9993
2 29479  98.0547 184.2037 0016020 290.2313  69.7169 14.68622988 54854
SHIJIAN-6 02B (SJ-6 02B)
1 29506U 06046B   26168.21304159  .00000883  00000+0  73054-4 0  9997
2 29506  97.7153 197.2716 0015371  60.3826 299.8927 15.01376844 70744
DMSP 5D-3 F17 (USA 191) 
1 29522U 06050A   26168.16969631 -.00000009  00000+0  17673-4 0  9992
2 29522  98.7378 174.7401 0011169  59.4497 300.7777 14.14993061 12422
LAPAN-TUBSAT            
1 29709U 07001A   26168.18701164 -.00000220  00000+0 -18559-4 0  9993
2 29709  98.1335 167.4108 0011874 179.1902 180.9333 14.85948953 51150
HAIYANG-1B              
1 31113U 07010A   26168.21472708  .00000068  00000+0  41575-4 0  9990
2 31113  98.3495 150.0588 0013015 196.2368 163.8401 14.31026885   642
COSMO-SKYMED 2          
1 32376U 07059A   26168.16104668  .00000316  00000+0  46291-4 0  9992
2 32376  97.8886 351.7594 0001351  87.1710 272.9658 14.82155005  2009
CARTOSAT-2A             
1 32783U 08021A   26168.18181051  .00000764  00000+0  10944-3 0  9999
2 32783  97.7631 216.8906 0013193 108.8315 251.4329 14.79240086978802
CUTE-1.7+APD II (CO-65) 
1 32785U 08021C   26168.18248431  .00004100  00000+0  26011-3 0  9997
2 32785  97.8272 149.6008 0009757  39.0823 321.1109 15.09451626985191
SEEDS II (CO-66)        
1 32791U 08021J   26167.93971588  .00015903  00000+0  50504-3 0  9999
2 32791  97.7513 165.8255 0001090   4.6274 355.4977 15.32745063987258
YUBILEINY (RS30)        
1 32953U 08025A   26168.17894034  .00000073  00000+0  45707-3 0  9991
2 32953  82.5036 355.4453 0018867 313.9508  46.0015 12.43179667819691
FENGYUN 3A              
1 32958U 08026A   26167.76539573  .00000050  00000+0  44318-4 0  9998
2 32958  98.6883 108.6064 0009574 124.7763 235.4315 14.19571060935342
HUANJING 1A (HJ-1A)     
1 33320U 08041A   26168.23375272  .00000654  00000+0  84507-4 0  9990
2 33320  97.6676 154.0702 0019943 134.5866 225.6980 14.83984870958413
HUANJING 1B (HJ-1B)     
1 33321U 08041B   26168.20284487  .00001323  00000+0  16608-3 0  9995
2 33321  97.6513 157.2124 0036067 180.8084 179.3079 14.83319000958410
SHIJIAN-6 03A (SJ-6 03A)
1 33408U 08053A   26168.18072249  .00003797  00000+0  19468-3 0  9996
2 33408  97.8397 201.5011 0011623  20.3002 339.8690 15.17164878962961
SHIJIAN-6 03B (SJ-6 03B)
1 33409U 08053B   26168.23285792  .00000885  00000+0  67954-4 0  9991
2 33409  97.8569 188.1255 0020874  45.0066 315.2846 15.04308230962751
CHUANGXIN 1-02 (CX-1-02)
1 33434U 08056B   26168.22756303 -.00000113  00000+0 -26773-4 0  9992
2 33434  98.6128 194.4939 0014995 136.3818 223.8553 14.30152759918621
